0 COSMOS 2361
1 25590U 98076A   13281.17583453  .00000055  00000-0  43552-4 0  4013
2 25590 082.9373 032.1601 0031898 033.1979 012.2901 13.72818340740978
0 COSMOS 2361
1 25590U 98076A   13282.41462046  .00000033  00000-0  18910-4 0  4022
2 25590 082.9375 031.2449 0031798 029.7304 014.5744 13.72818652741148
0 COSMOS 2361
1 25590U 98076A   13283.43503904  .00000042  00000-0  29206-4 0  4035
2 25590 082.9377 030.4910 0031747 026.9976 017.5303 13.72818839741288
0 COSMOS 2361
1 25590U 98076A   13284.45607789  .00000033  00000-0  18995-4 0  4048
2 25590 082.9379 029.7368 0031676 024.2005 023.6137 13.72818847741421
0 COSMOS 2361
1 25590U 98076A   13285.79263716  .00000039  00000-0  25416-4 0  4057
2 25590 082.9380 028.7495 0031595 020.5646 149.0083 13.72818756741605
0 COSMOS 2361
1 25590U 98076A   13286.87974574  .00000041  00000-0  28479-4 0  4064
2 25590 082.9381 027.9465 0031517 017.5661 121.6366 13.72818662741753
0 COSMOS 2361
1 25590U 98076A   13287.89959881  .00000055  00000-0  43736-4 0  4070
2 25590 082.9381 027.1933 0031449 014.6839 121.9490 13.72818644741890
0 COSMOS 2361
1 25590U 98076A   13289.41159579  .00000076  00000-0  65963-4 0  4086
2 25590 082.9380 026.0766 0031350 010.3410 034.6027 13.72818800742105
0 COSMOS 2361
1 25590U 98076A   13290.43221512  .00000077  00000-0  67259-4 0  4099
2 25590 082.9378 025.3229 0031282 007.4701 038.6887 13.72818928742246
0 COSMOS 2361
1 25590U 98076A   13291.83257032  .00000088  00000-0  78913-4 0  4103
2 25590 082.9376 024.2885 0031205 003.5173 119.5128 13.72819177742430
0 COSMOS 2361
1 25590U 98076A   13292.85620645  .00000075  00000-0  65187-4 0  4116
2 25590 082.9375 023.5325 0031122 000.7580 138.3892 13.72819347742570
0 COSMOS 2361
1 25590U 98076A   13293.87655155  .00000069  00000-0  58591-4 0  4128
2 25590 082.9374 022.7789 0031048 357.9134 141.0961 13.72819573742718
0 COSMOS 2361
1 25590U 98076A   13295.17271065  .00000060  00000-0  48793-4 0  4132
2 25590 082.9375 021.8215 0030965 354.2189 067.0012 13.72819757742897
